HAWK-11B                
1 62379U 24247C   26068.44730104  .00009093  00000+0  32842-3 0  9993
2 62379  45.0161 115.7610 0004690 333.0326  27.0314 15.28847070 67738
STARLINK-35527          
1 66092U 25236G   26068.38276250  .00019631  00000+0  67299-3 0  9991
2 66092  53.1581 105.5807 0000990  91.5245 268.5869 15.30209333 22892
